OBJECT_NAME,OBJECT_ID,EPOCH,MEAN_MOTION,ECCENTRICITY,INCLINATION,RA_OF_ASC_NODE,ARG_OF_PERICENTER,MEAN_ANOMALY,EPHEMERIS_TYPE,CLASSIFICATION_TYPE,NORAD_CAT_ID,ELEMENT_SET_NO,REV_AT_EPOCH,BSTAR,MEAN_MOTION_DOT,MEAN_MOTION_DDOT
GSAT0225 (GALILEO 29),2024-079A,2026-07-17T00:32:37.366944,1.70473788,.00005232,55.1373,100.2459,335.7440,200.6347,0,U,59598,999,1382,0,-.28E-6,0
GSAT0227 (GALILEO 30),2024-079C,2026-07-13T23:39:34.866144,1.70473814,.00028453,55.1303,100.3294,67.2681,292.7822,0,U,59600,999,1382,0,-.3E-6,0
GSAT0232 (GALILEO 32),2024-167A,2026-07-16T14:45:01.777824,1.70474030,.0006489,55.1789,220.5058,233.0865,155.9296,0,U,61182,999,1138,0,.49E-6,0
GSAT0226 (GALILEO 31),2024-167B,2026-07-15T12:58:33.996864,1.70474006,.0003207,55.1780,220.5424,236.6774,304.5756,0,U,61183,999,1133,0,.56E-6,0
BEIDOU-3 M25 (C47),2024-168B,2026-07-16T23:39:38.723040,1.86229972,.0003354,54.4447,301.2059,291.9069,64.5321,0,U,61186,999,1233,0,-.8E-6,0
BEIDOU-3 M27 (C49),2024-168C,2026-07-16T21:09:30.216672,1.86230020,.00008928,54.4402,301.1922,46.1896,15.3797,0,U,61187,999,981,0,-.79E-6,0
GPS BIII-7  (PRN 01),2024-242A,2026-07-17T06:12:04.157280,2.00572110,.00179356,54.8350,332.9620,4.2822,358.5302,0,U,62339,999,1186,0,-.102E-5,0
QZS-6 (QZSS/PRN 200),2025-023A,2026-07-17T03:26:16.214208,1.00274853,.00017977,0.0094,21.6626,92.4559,322.8532,0,U,62876,999,524,0,-.243E-5,0
COSMOS 2584 (704K),2025-042A,2026-07-13T21:18:41.244768,2.13103784,.000546,65.0996,71.8945,213.8001,146.2394,0,U,63130,999,1061,0,-.1E-6,0
GPS BIII-8  (PRN 21),2025-116A,2026-07-17T00:03:42.727968,2.00573658,.00084104,55.2550,29.9311,339.3397,21.8986,0,U,64202,999,847,0,-.82E-6,0
COSMOS 2596 (708K),2025-206B,2026-07-13T08:02:05.138880,2.13100618,.00111267,64.6178,314.0753,307.7533,103.9433,0,U,65590,999,647,0,-.64E-6,0
GSAT0233 (GALILEO 33),2025-302A,2026-07-16T13:25:06.964896,1.70473838,.00009723,54.3515,101.2938,153.0482,29.7567,0,U,67160,999,362,0,-.28E-6,0
GSAT0234 (GALILEO 34),2025-302C,2026-07-16T20:22:49.584000,1.70473930,.00022161,54.3544,101.2845,322.1435,218.7937,0,U,67162,999,368,0,-.28E-6,0
GPS BIII-9  (PRN 20),2026-017A,2026-07-16T02:44:02.809824,2.00570476,.0021564,55.1067,87.5942,260.2085,99.6021,0,U,67588,999,43219,0,-.25E-6,0
GPS BIII-10 (PRN 13),2026-087A,2026-07-15T11:14:09.755808,2.00572628,.00204615,54.9617,206.6692,106.0864,353.1427,0,U,68791,999,140,0,.49E-6,0
